JILIN-1 KUANFU 01       
1 45016U 20003A   26197.22888829  .00001524  00000+0  95315-4 0  9991
2 45016  97.5021 270.6183 0009350 193.0895 167.0094 15.10870148359718
JILIN-1 KUANFU-01B      
1 49003U 21061A   26197.26833851  .00001275  00000+0  82798-4 0  9999
2 49003  97.5211 272.9214 0005886 334.0084  26.0848 15.09811928277737
JILIN-1 KUANFU 01C      
1 52443U 22048A   26197.26036904  .00001173  00000+0  76725-4 0  9991
2 52443  97.5250 273.9036 0017393 216.3362 143.6688 15.09602546231587
JILIN-1 KUANFU 02A      
1 57696U 23127A   26197.27881569  .00002540  00000+0  15660-3 0  9990
2 57696  97.5572 290.7304 0010381 232.6427 127.3858 15.10816743160023
JILIN-01 KUANFU 02B 1   
1 61189U 24169A   26197.29380928  .00001518  00000+0  99821-4 0  9990
2 61189  97.5577 286.3700 0001444 336.9043  23.2120 15.09060928100218
JILIN-01 KUANFU 02B 2   
1 61190U 24169B   26197.27346030  .00001756  00000+0  11499-3 0  9994
2 61190  97.5570 285.7346 0004829 274.4700  85.5977 15.09021964100216
JILIN-01 KUANFU 02B 3   
1 61191U 24169C   26197.28237892  .00001639  00000+0  10735-3 0  9993
2 61191  97.5566 286.1763 0013132 201.9798 158.0869 15.09060552100211
JILIN-01 KUANFU 02B 4   
1 61192U 24169D   26197.25116701  .00002231  00000+0  14466-3 0  9990
2 61192  97.5530 285.6713 0014094 160.2894 199.8882 15.09047538100211
JILIN-01 KUANFU 02B 5   
1 61193U 24169E   26197.23817404  .00001707  00000+0  11157-3 0  9998
2 61193  97.5578 286.4561 0013278 183.8488 176.2641 15.09079273100210
JILIN-01 KUANFU 02B 6   
1 61194U 24169F   26197.26183726  .00002046  00000+0  13301-3 0  9995
2 61194  97.5559 286.3716 0015696 217.4520 142.5616 15.09038148100223
