{"fetched_at":"2026-07-16T17:46:44.456Z","source":"https://celestrak.org/NORAD/elements/gp.php?NAME=JILIN&FORMAT=JSON","constellation":"jilin-1-kuanfu","records":[{"OBJECT_NAME":"JILIN-1 KUANFU 01","OBJECT_ID":"2020-003A","EPOCH":"2026-07-16T05:29:35.948256","CLASSIFICATION_TYPE":"U","MEAN_MOTION":15.10870148,"ECCENTRICITY":0.00093504,"INCLINATION":97.5021,"RA_OF_ASC_NODE":270.6183,"ARG_OF_PERICENTER":193.0895,"MEAN_ANOMALY":167.0094,"EPHEMERIS_TYPE":0,"NORAD_CAT_ID":45016,"ELEMENT_SET_NO":999,"REV_AT_EPOCH":35971,"BSTAR":0.000095314806,"MEAN_MOTION_DOT":0.00001524,"MEAN_MOTION_DDOT":0},{"OBJECT_NAME":"JILIN-1 KUANFU-01B","OBJECT_ID":"2021-061A","EPOCH":"2026-07-16T06:26:24.447264","CLASSIFICATION_TYPE":"U","MEAN_MOTION":15.09811928,"ECCENTRICITY":0.00058864,"INCLINATION":97.5211,"RA_OF_ASC_NODE":272.9214,"ARG_OF_PERICENTER":334.0084,"MEAN_ANOMALY":26.0848,"EPHEMERIS_TYPE":0,"NORAD_CAT_ID":49003,"ELEMENT_SET_NO":999,"REV_AT_EPOCH":27773,"BSTAR":0.000082797737,"MEAN_MOTION_DOT":0.00001275,"MEAN_MOTION_DDOT":0},{"OBJECT_NAME":"JILIN-1 KUANFU 01C","OBJECT_ID":"2022-048A","EPOCH":"2026-07-16T06:14:55.885056","CLASSIFICATION_TYPE":"U","MEAN_MOTION":15.09602546,"ECCENTRICITY":0.00173939,"INCLINATION":97.525,"RA_OF_ASC_NODE":273.9036,"ARG_OF_PERICENTER":216.3362,"MEAN_ANOMALY":143.6688,"EPHEMERIS_TYPE":0,"NORAD_CAT_ID":52443,"ELEMENT_SET_NO":999,"REV_AT_EPOCH":23158,"BSTAR":0.000076725428,"MEAN_MOTION_DOT":0.00001173,"MEAN_MOTION_DDOT":0},{"OBJECT_NAME":"JILIN-1 KUANFU 02A","OBJECT_ID":"2023-127A","EPOCH":"2026-07-16T06:41:29.675616","CLASSIFICATION_TYPE":"U","MEAN_MOTION":15.10816743,"ECCENTRICITY":0.00103816,"INCLINATION":97.5572,"RA_OF_ASC_NODE":290.7304,"ARG_OF_PERICENTER":232.6427,"MEAN_ANOMALY":127.3858,"EPHEMERIS_TYPE":0,"NORAD_CAT_ID":57696,"ELEMENT_SET_NO":999,"REV_AT_EPOCH":16002,"BSTAR":0.00015660476,"MEAN_MOTION_DOT":0.0000254,"MEAN_MOTION_DDOT":0},{"OBJECT_NAME":"JILIN-01 KUANFU 02B 1","OBJECT_ID":"2024-169A","EPOCH":"2026-07-16T07:03:05.121792","CLASSIFICATION_TYPE":"U","MEAN_MOTION":15.09060928,"ECCENTRICITY":0.00014447,"INCLINATION":97.5577,"RA_OF_ASC_NODE":286.37,"ARG_OF_PERICENTER":336.9043,"MEAN_ANOMALY":23.212,"EPHEMERIS_TYPE":0,"NORAD_CAT_ID":61189,"ELEMENT_SET_NO":999,"REV_AT_EPOCH":10021,"BSTAR":0.000099820826,"MEAN_MOTION_DOT":0.00001518,"MEAN_MOTION_DDOT":0},{"OBJECT_NAME":"JILIN-01 KUANFU 02B 2","OBJECT_ID":"2024-169B","EPOCH":"2026-07-16T06:33:46.969920","CLASSIFICATION_TYPE":"U","MEAN_MOTION":15.09021964,"ECCENTRICITY":0.00048296,"INCLINATION":97.557,"RA_OF_ASC_NODE":285.7346,"ARG_OF_PERICENTER":274.47,"MEAN_ANOMALY":85.5977,"EPHEMERIS_TYPE":0,"NORAD_CAT_ID":61190,"ELEMENT_SET_NO":999,"REV_AT_EPOCH":10021,"BSTAR":0.00011499303,"MEAN_MOTION_DOT":0.00001756,"MEAN_MOTION_DDOT":0},{"OBJECT_NAME":"JILIN-01 KUANFU 02B 3","OBJECT_ID":"2024-169C","EPOCH":"2026-07-16T06:46:37.538688","CLASSIFICATION_TYPE":"U","MEAN_MOTION":15.09060552,"ECCENTRICITY":0.00131325,"INCLINATION":97.5566,"RA_OF_ASC_NODE":286.1763,"ARG_OF_PERICENTER":201.9798,"MEAN_ANOMALY":158.0869,"EPHEMERIS_TYPE":0,"NORAD_CAT_ID":61191,"ELEMENT_SET_NO":999,"REV_AT_EPOCH":10021,"BSTAR":0.00010735265,"MEAN_MOTION_DOT":0.00001639,"MEAN_MOTION_DDOT":0},{"OBJECT_NAME":"JILIN-01 KUANFU 02B 4","OBJECT_ID":"2024-169D","EPOCH":"2026-07-16T06:01:40.829664","CLASSIFICATION_TYPE":"U","MEAN_MOTION":15.09047538,"ECCENTRICITY":0.00140945,"INCLINATION":97.553,"RA_OF_ASC_NODE":285.6713,"ARG_OF_PERICENTER":160.2894,"MEAN_ANOMALY":199.8882,"EPHEMERIS_TYPE":0,"NORAD_CAT_ID":61192,"ELEMENT_SET_NO":999,"REV_AT_EPOCH":10021,"BSTAR":0.00014465787,"MEAN_MOTION_DOT":0.00002231,"MEAN_MOTION_DDOT":0},{"OBJECT_NAME":"JILIN-01 KUANFU 02B 5","OBJECT_ID":"2024-169E","EPOCH":"2026-07-16T05:42:58.237056","CLASSIFICATION_TYPE":"U","MEAN_MOTION":15.09079273,"ECCENTRICITY":0.00132785,"INCLINATION":97.5578,"RA_OF_ASC_NODE":286.4561,"ARG_OF_PERICENTER":183.8488,"MEAN_ANOMALY":176.2641,"EPHEMERIS_TYPE":0,"NORAD_CAT_ID":61193,"ELEMENT_SET_NO":999,"REV_AT_EPOCH":10021,"BSTAR":0.00011156536,"MEAN_MOTION_DOT":0.00001707,"MEAN_MOTION_DDOT":0},{"OBJECT_NAME":"JILIN-01 KUANFU 02B 6","OBJECT_ID":"2024-169F","EPOCH":"2026-07-16T06:17:02.739264","CLASSIFICATION_TYPE":"U","MEAN_MOTION":15.09038148,"ECCENTRICITY":0.00156967,"INCLINATION":97.5559,"RA_OF_ASC_NODE":286.3716,"ARG_OF_PERICENTER":217.452,"MEAN_ANOMALY":142.5616,"EPHEMERIS_TYPE":0,"NORAD_CAT_ID":61194,"ELEMENT_SET_NO":999,"REV_AT_EPOCH":10022,"BSTAR":0.00013300783,"MEAN_MOTION_DOT":0.00002046,"MEAN_MOTION_DDOT":0}]}
